IRIDIUM 26              
1 24903U 97043A   25189.49170732  .00000239  00000+0  73742-4 0  9999
2 24903  86.3956 101.6744 0002311  80.4495 279.6963 14.37158480459806
IRIDIUM 22              
1 24907U 97043E   25189.85724665  .00000224  00000+0  70458-4 0  9998
2 24907  86.3965 105.0795 0002157  83.8182 276.3261 14.35969603459879
DUMMY MASS 1            
1 24925U 97048A   25189.88411947  .00000306  00000+0  30996-4 0  9996
2 24925  86.3364 125.3007 0008987  75.0853 285.1366 14.87000118508590
DUMMY MASS 2            
1 24926U 97048B   25189.58066160  .00000303  00000+0  30781-4 0  9996
2 24926  86.3367 127.0518 0009877  84.3604 275.8747 14.86751937508080
IRIDIUM 29              
1 24944U 97051A   25189.59384133  .00000281  00000+0  89002-4 0  9999
2 24944  86.3982 134.9224 0002181  90.3645 269.7802 14.36481708456343
IRIDIUM 33              
1 24946U 97051C   25189.87809511  .00000229  00000+0  73549-4 0  9995
2 24946  86.3897 134.0652 0008596  22.8275 337.3301 14.34903522455864
IRIDIUM 28              
1 24948U 97051E   25189.55397060  .00000258  00000+0  79717-4 0  9998
2 24948  86.3986 132.4434 0002495  75.0965 285.0509 14.37398008456919
IRIDIUM 36              
1 24967U 97056C   25189.86200150  .00000288  00000+0  89302-4 0  9995
2 24967  86.3998 163.8984 0002110  82.5950 277.5488 14.37623080455330
